[{"OBJECT_NAME":"COSMOS 2508 (RODNIK-S 14)","OBJECT_ID":"2015-050B","EPOCH":"2026-02-01T22:54:57.794112","MEAN_MOTION":12.42908511,"ECCENTRICITY":0.00131391,"INCLINATION":82.4898,"RA_OF_ASC_NODE":162.4119,"ARG_OF_PERICENTER":319.7233,"MEAN_ANOMALY":40.2872,"EPHEMERIS_TYPE":0,"CLASSIFICATION_TYPE":"U","NORAD_CAT_ID":40921,"ELEMENT_SET_NO":999,"REV_AT_EPOCH":47004,"BSTAR":-0.0010135293,"MEAN_MOTION_DOT":-1.31e-6,"MEAN_MOTION_DDOT":0},{"OBJECT_NAME":"COSMOS 2509 (RODNIK-S 15)","OBJECT_ID":"2015-050C","EPOCH":"2026-02-01T21:25:46.876224","MEAN_MOTION":12.42928439,"ECCENTRICITY":0.00136692,"INCLINATION":82.4904,"RA_OF_ASC_NODE":162.5416,"ARG_OF_PERICENTER":339.6594,"MEAN_ANOMALY":20.394,"EPHEMERIS_TYPE":0,"CLASSIFICATION_TYPE":"U","NORAD_CAT_ID":40922,"ELEMENT_SET_NO":999,"REV_AT_EPOCH":47007,"BSTAR":-0.0012410117,"MEAN_MOTION_DOT":-1.62e-6,"MEAN_MOTION_DDOT":0},{"OBJECT_NAME":"LQSAT","OBJECT_ID":"2015-057A","EPOCH":"2026-02-01T22:55:30.416160","MEAN_MOTION":14.76564269,"ECCENTRICITY":0.00170949,"INCLINATION":97.6625,"RA_OF_ASC_NODE":33.0876,"ARG_OF_PERICENTER":356.7866,"MEAN_ANOMALY":3.3232,"EPHEMERIS_TYPE":0,"CLASSIFICATION_TYPE":"U","NORAD_CAT_ID":40958,"ELEMENT_SET_NO":999,"REV_AT_EPOCH":55535,"BSTAR":0.00018671759,"MEAN_MOTION_DOT":1.257e-5,"MEAN_MOTION_DDOT":0},{"OBJECT_NAME":"LINGQIAO VIDEO A","OBJECT_ID":"2015-057B","EPOCH":"2026-02-01T23:07:21.917568","MEAN_MOTION":14.77162541,"ECCENTRICITY":0.00167038,"INCLINATION":97.6576,"RA_OF_ASC_NODE":34.4921,"ARG_OF_PERICENTER":354.5321,"MEAN_ANOMALY":5.5705,"EPHEMERIS_TYPE":0,"CLASSIFICATION_TYPE":"U","NORAD_CAT_ID":40959,"ELEMENT_SET_NO":999,"REV_AT_EPOCH":55544,"BSTAR":0.00019422163,"MEAN_MOTION_DOT":1.329e-5,"MEAN_MOTION_DDOT":0},{"OBJECT_NAME":"LINGQIAO VIDEO B","OBJECT_ID":"2015-057C","EPOCH":"2026-02-01T22:46:43.835808","MEAN_MOTION":14.77247786,"ECCENTRICITY":0.00168924,"INCLINATION":97.655,"RA_OF_ASC_NODE":35.6736,"ARG_OF_PERICENTER":354.7188,"MEAN_ANOMALY":5.3842,"EPHEMERIS_TYPE":0,"CLASSIFICATION_TYPE":"U","NORAD_CAT_ID":40960,"ELEMENT_SET_NO":999,"REV_AT_EPOCH":55548,"BSTAR":0.00012584888,"MEAN_MOTION_DOT":8.46e-6,"MEAN_MOTION_DDOT":0},{"OBJECT_NAME":"JILIN-1","OBJECT_ID":"2015-057D","EPOCH":"2026-02-01T22:55:19.096032","MEAN_MOTION":14.77921078,"ECCENTRICITY":0.00166901,"INCLINATION":97.6497,"RA_OF_ASC_NODE":39.0693,"ARG_OF_PERICENTER":348.8024,"MEAN_ANOMALY":11.2813,"EPHEMERIS_TYPE":0,"CLASSIFICATION_TYPE":"U","NORAD_CAT_ID":40961,"ELEMENT_SET_NO":999,"REV_AT_EPOCH":55563,"BSTAR":0.00013074065,"MEAN_MOTION_DOT":8.95e-6,"MEAN_MOTION_DDOT":0},{"OBJECT_NAME":"FOX-1A (AO-85)","OBJECT_ID":"2015-058D","EPOCH":"2026-02-01T22:58:36.080256","MEAN_MOTION":14.90062695,"ECCENTRICITY":0.01306298,"INCLINATION":64.7776,"RA_OF_ASC_NODE":338.9529,"ARG_OF_PERICENTER":110.0463,"MEAN_ANOMALY":251.4766,"EPHEMERIS_TYPE":0,"CLASSIFICATION_TYPE":"U","NORAD_CAT_ID":40967,"ELEMENT_SET_NO":999,"REV_AT_EPOCH":9341,"BSTAR":0.00024716874,"MEAN_MOTION_DOT":2.637e-5,"MEAN_MOTION_DDOT":0},{"OBJECT_NAME":"SINOD-D 1","OBJECT_ID":"2015-058E","EPOCH":"2026-02-01T23:33:11.460960","MEAN_MOTION":14.94635136,"ECCENTRICITY":0.01190582,"INCLINATION":64.7774,"RA_OF_ASC_NODE":321.9316,"ARG_OF_PERICENTER":107.6815,"MEAN_ANOMALY":253.7339,"EPHEMERIS_TYPE":0,"CLASSIFICATION_TYPE":"U","NORAD_CAT_ID":40968,"ELEMENT_SET_NO":999,"REV_AT_EPOCH":9644,"BSTAR":0.00033933585,"MEAN_MOTION_DOT":4.067e-5,"MEAN_MOTION_DDOT":0},{"OBJECT_NAME":"ELEKTRO-L 2","OBJECT_ID":"2015-074A","EPOCH":"2026-02-01T21:58:32.153952","MEAN_MOTION":1.00271876,"ECCENTRICITY":0.00038011,"INCLINATION":6.3534,"RA_OF_ASC_NODE":72.2001,"ARG_OF_PERICENTER":223.1712,"MEAN_ANOMALY":151.8598,"EPHEMERIS_TYPE":0,"CLASSIFICATION_TYPE":"U","NORAD_CAT_ID":41105,"ELEMENT_SET_NO":999,"REV_AT_EPOCH":3715,"BSTAR":0,"MEAN_MOTION_DOT":-1.29e-6,"MEAN_MOTION_DDOT":0},{"OBJECT_NAME":"DAMPE","OBJECT_ID":"2015-078A","EPOCH":"2026-02-01T23:17:20.688576","MEAN_MOTION":15.30364047,"ECCENTRICITY":0.0011616,"INCLINATION":97.456,"RA_OF_ASC_NODE":37.8057,"ARG_OF_PERICENTER":187.9825,"MEAN_ANOMALY":172.1232,"EPHEMERIS_TYPE":0,"CLASSIFICATION_TYPE":"U","NORAD_CAT_ID":41173,"ELEMENT_SET_NO":999,"REV_AT_EPOCH":56386,"BSTAR":6.0611021e-5,"MEAN_MOTION_DOT":1.705e-5,"MEAN_MOTION_DDOT":0},{"OBJECT_NAME":"ORBCOMM FM114","OBJECT_ID":"2015-081A","EPOCH":"2026-02-01T21:56:39.016608","MEAN_MOTION":14.58665773,"ECCENTRICITY":0.00027512,"INCLINATION":47.0049,"RA_OF_ASC_NODE":281.4734,"ARG_OF_PERICENTER":298.0388,"MEAN_ANOMALY":62.022,"EPHEMERIS_TYPE":0,"CLASSIFICATION_TYPE":"U","NORAD_CAT_ID":41179,"ELEMENT_SET_NO":999,"REV_AT_EPOCH":53800,"BSTAR":0.00016139841,"MEAN_MOTION_DOT":5.89e-6,"MEAN_MOTION_DDOT":0},{"OBJECT_NAME":"ORBCOMM FM110","OBJECT_ID":"2015-081D","EPOCH":"2026-02-01T21:40:59.317248","MEAN_MOTION":14.58654775,"ECCENTRICITY":0.00025832,"INCLINATION":47.0021,"RA_OF_ASC_NODE":281.0047,"ARG_OF_PERICENTER":180.2912,"MEAN_ANOMALY":179.7973,"EPHEMERIS_TYPE":0,"CLASSIFICATION_TYPE":"U","NORAD_CAT_ID":41182,"ELEMENT_SET_NO":999,"REV_AT_EPOCH":53787,"BSTAR":0.00020920694,"MEAN_MOTION_DOT":8.14e-6,"MEAN_MOTION_DDOT":0},{"OBJECT_NAME":"ORBCOMM FM112","OBJECT_ID":"2015-081F","EPOCH":"2026-02-01T19:17:47.832576","MEAN_MOTION":14.58651206,"ECCENTRICITY":0.0002121,"INCLINATION":46.9977,"RA_OF_ASC_NODE":190.2976,"ARG_OF_PERICENTER":288.4231,"MEAN_ANOMALY":71.6424,"EPHEMERIS_TYPE":0,"CLASSIFICATION_TYPE":"U","NORAD_CAT_ID":41184,"ELEMENT_SET_NO":999,"REV_AT_EPOCH":53918,"BSTAR":0.0002470405,"MEAN_MOTION_DOT":9.92e-6,"MEAN_MOTION_DDOT":0},{"OBJECT_NAME":"ORBCOMM FM113","OBJECT_ID":"2015-081G","EPOCH":"2026-02-01T20:23:41.681472","MEAN_MOTION":14.58654669,"ECCENTRICITY":0.00017619,"INCLINATION":46.9992,"RA_OF_ASC_NODE":190.4446,"ARG_OF_PERICENTER":293.4783,"MEAN_ANOMALY":66.5918,"EPHEMERIS_TYPE":0,"CLASSIFICATION_TYPE":"U","NORAD_CAT_ID":41185,"ELEMENT_SET_NO":999,"REV_AT_EPOCH":53917,"BSTAR":0.00023935032,"MEAN_MOTION_DOT":9.56e-6,"MEAN_MOTION_DDOT":0},{"OBJECT_NAME":"ORBCOMM FM108","OBJECT_ID":"2015-081J","EPOCH":"2026-02-01T14:34:06.982464","MEAN_MOTION":14.5865809,"ECCENTRICITY":0.00034589,"INCLINATION":47.004,"RA_OF_ASC_NODE":103.1192,"ARG_OF_PERICENTER":282.0381,"MEAN_ANOMALY":78.0117,"EPHEMERIS_TYPE":0,"CLASSIFICATION_TYPE":"U","NORAD_CAT_ID":41187,"ELEMENT_SET_NO":999,"REV_AT_EPOCH":54028,"BSTAR":0.00026904289,"MEAN_MOTION_DOT":1.095e-5,"MEAN_MOTION_DDOT":0},{"OBJECT_NAME":"ORBCOMM FM117","OBJECT_ID":"2015-081K","EPOCH":"2026-02-01T13:44:15.893952","MEAN_MOTION":14.58650874,"ECCENTRICITY":0.00037328,"INCLINATION":47.001,"RA_OF_ASC_NODE":101.96,"ARG_OF_PERICENTER":289.3542,"MEAN_ANOMALY":70.694,"EPHEMERIS_TYPE":0,"CLASSIFICATION_TYPE":"U","NORAD_CAT_ID":41188,"ELEMENT_SET_NO":999,"REV_AT_EPOCH":54032,"BSTAR":0.00026358086,"MEAN_MOTION_DOT":1.069e-5,"MEAN_MOTION_DDOT":0}]
