COSMOS 2508 (RODNIK-S *)
1 40921U 15050B   26032.95483558 -.00000131  00000+0 -10135-2 0  9995
2 40921  82.4898 162.4119 0013139 319.7233  40.2872 12.42908511470047
COSMOS 2509 (RODNIK-S *)
1 40922U 15050C   26032.89290366 -.00000162  00000+0 -12410-2 0  9994
2 40922  82.4904 162.5416 0013669 339.6594  20.3940 12.42928439470075
LQSAT                   
1 40958U 15057A   26032.95521315  .00001257  00000+0  18672-3 0  9999
2 40958  97.6625  33.0876 0017094 356.7866   3.3232 14.76564269555358
LINGQIAO VIDEO A        
1 40959U 15057B   26032.96344812  .00001329  00000+0  19422-3 0  9990
2 40959  97.6576  34.4921 0016703 354.5321   5.5705 14.77162541555445
LINGQIAO VIDEO B        
1 40960U 15057C   26032.94911847  .00000846  00000+0  12585-3 0  9994
2 40960  97.6550  35.6736 0016892 354.7188   5.3842 14.77247786555487
JILIN-1                 
1 40961U 15057D   26032.95508213  .00000895  00000+0  13074-3 0  9993
2 40961  97.6497  39.0693 0016690 348.8024  11.2813 14.77921078555631
FOX-1A (AO-85)          
1 40967U 15058D   26032.95736204  .00002637  00000+0  24717-3 0  9995
2 40967  64.7776 338.9529 0130629 110.0463 251.4766 14.90062695 93410
SINOD-D 1               
1 40968U 15058E   26032.98138265  .00004067  00000+0  33934-3 0  9992
2 40968  64.7774 321.9316 0119058 107.6815 253.7339 14.94635136 96448
ELEKTRO-L 2             
1 41105U 15074A   26032.91564993 -.00000129  00000+0  00000+0 0  9998
2 41105   6.3534  72.2001 0003801 223.1712 151.8598  1.00271876 37151
DAMPE                   
1 41173U 15078A   26032.97037834  .00001705  00000+0  60611-4 0  9991
2 41173  97.4560  37.8057 0011616 187.9825 172.1232 15.30364047563863
ORBCOMM FM114           
1 41179U 15081A   26032.91434047  .00000589  00000+0  16140-3 0  9998
2 41179  47.0049 281.4734 0002751 298.0388  62.0220 14.58665773538000
ORBCOMM FM110           
1 41182U 15081D   26032.90346432  .00000814  00000+0  20921-3 0  9994
2 41182  47.0021 281.0047 0002583 180.2912 179.7973 14.58654775537870
ORBCOMM FM112           
1 41184U 15081F   26032.80402584  .00000992  00000+0  24704-3 0  9996
2 41184  46.9977 190.2976 0002121 288.4231  71.6424 14.58651206539188
ORBCOMM FM113           
1 41185U 15081G   26032.84978798  .00000956  00000+0  23935-3 0  9991
2 41185  46.9992 190.4446 0001761 293.4783  66.5918 14.58654669539173
ORBCOMM FM108           
1 41187U 15081J   26032.60702526  .00001095  00000+0  26904-3 0  9995
2 41187  47.0040 103.1192 0003458 282.0381  78.0117 14.58658090540288
ORBCOMM FM117           
1 41188U 15081K   26032.57240618  .00001069  00000+0  26358-3 0  9995
2 41188  47.0010 101.9600 0003732 289.3542  70.6940 14.58650874540329
